FALCONSAT-10            
1 58291U 23174AM  26068.70247784  .00006748  00000+0  25969-3 0  9991
2 58291  97.3865 145.7938 0008932 169.5942 190.5483 15.26670596129582
STARLINK-34140          
1 64085U 25107X   26068.38701486  .00022605  00000+0  82799-3 0  9999
2 64085  42.9957 203.2944 0000945 152.0067 208.0836 15.27598758 46053
